{"fetched_at":"2026-07-12T07:15:21.624Z","source":"https://celestrak.org/NORAD/elements/gp.php?GROUP=planet&FORMAT=JSON","constellation":"skysat","records":[{"OBJECT_NAME":"SKYSAT-A","OBJECT_ID":"2013-066C","EPOCH":"2026-07-11T22:12:30.308256","CLASSIFICATION_TYPE":"U","MEAN_MOTION":15.13105178,"ECCENTRICITY":0.00201835,"INCLINATION":97.3805,"RA_OF_ASC_NODE":241.5341,"ARG_OF_PERICENTER":225.2191,"MEAN_ANOMALY":134.74,"EPHEMERIS_TYPE":0,"NORAD_CAT_ID":39418,"ELEMENT_SET_NO":999,"REV_AT_EPOCH":69222,"BSTAR":0.000086825938,"MEAN_MOTION_DOT":0.0000148,"MEAN_MOTION_DDOT":0},{"OBJECT_NAME":"SKYSAT-B","OBJECT_ID":"2014-037D","EPOCH":"2026-07-11T20:53:17.414880","CLASSIFICATION_TYPE":"U","MEAN_MOTION":14.88087332,"ECCENTRICITY":0.00053095,"INCLINATION":98.3853,"RA_OF_ASC_NODE":153.2453,"ARG_OF_PERICENTER":183.368,"MEAN_ANOMALY":176.75,"EPHEMERIS_TYPE":0,"NORAD_CAT_ID":40072,"ELEMENT_SET_NO":999,"REV_AT_EPOCH":64963,"BSTAR":0.000079264116,"MEAN_MOTION_DOT":0.00000667,"MEAN_MOTION_DDOT":0},{"OBJECT_NAME":"SKYSAT-C1","OBJECT_ID":"2016-040C","EPOCH":"2026-07-11T15:19:14.131200","CLASSIFICATION_TYPE":"U","MEAN_MOTION":15.36708815,"ECCENTRICITY":0.0000645,"INCLINATION":96.9557,"RA_OF_ASC_NODE":223.0369,"ARG_OF_PERICENTER":355.4804,"MEAN_ANOMALY":4.6435,"EPHEMERIS_TYPE":0,"NORAD_CAT_ID":41601,"ELEMENT_SET_NO":999,"REV_AT_EPOCH":56162,"BSTAR":0.00015588995,"MEAN_MOTION_DOT":0.00005514,"MEAN_MOTION_DDOT":0},{"OBJECT_NAME":"SKYSAT-C4","OBJECT_ID":"2016-058B","EPOCH":"2026-07-11T14:56:13.543872","CLASSIFICATION_TYPE":"U","MEAN_MOTION":15.49356628,"ECCENTRICITY":0.00033674,"INCLINATION":96.9168,"RA_OF_ASC_NODE":213.3821,"ARG_OF_PERICENTER":122.9938,"MEAN_ANOMALY":237.1639,"EPHEMERIS_TYPE":0,"NORAD_CAT_ID":41771,"ELEMENT_SET_NO":999,"REV_AT_EPOCH":54925,"BSTAR":0.00019370337,"MEAN_MOTION_DOT":0.00010529,"MEAN_MOTION_DDOT":0},{"OBJECT_NAME":"SKYSAT-C5","OBJECT_ID":"2016-058C","EPOCH":"2026-07-11T21:12:43.105536","CLASSIFICATION_TYPE":"U","MEAN_MOTION":15.33689978,"ECCENTRICITY":0.00022129,"INCLINATION":97.046,"RA_OF_ASC_NODE":232.4196,"ARG_OF_PERICENTER":170.0911,"MEAN_ANOMALY":190.0377,"EPHEMERIS_TYPE":0,"NORAD_CAT_ID":41772,"ELEMENT_SET_NO":999,"REV_AT_EPOCH":54753,"BSTAR":0.0001416755,"MEAN_MOTION_DOT":0.00004541,"MEAN_MOTION_DDOT":0},{"OBJECT_NAME":"SKYSAT-C2","OBJECT_ID":"2016-058D","EPOCH":"2026-07-11T14:08:03.537312","CLASSIFICATION_TYPE":"U","MEAN_MOTION":15.42624716,"ECCENTRICITY":0.00019439,"INCLINATION":97.016,"RA_OF_ASC_NODE":213.7722,"ARG_OF_PERICENTER":8.4873,"MEAN_ANOMALY":351.6408,"EPHEMERIS_TYPE":0,"NORAD_CAT_ID":41773,"ELEMENT_SET_NO":999,"REV_AT_EPOCH":54881,"BSTAR":0.00017446035,"MEAN_MOTION_DOT":0.00007511,"MEAN_MOTION_DDOT":0},{"OBJECT_NAME":"SKYSAT-C3","OBJECT_ID":"2016-058E","EPOCH":"2026-07-11T15:03:29.326464","CLASSIFICATION_TYPE":"U","MEAN_MOTION":15.5359318,"ECCENTRICITY":0.00023109,"INCLINATION":96.9,"RA_OF_ASC_NODE":222.5485,"ARG_OF_PERICENTER":132.6735,"MEAN_ANOMALY":227.4714,"EPHEMERIS_TYPE":0,"NORAD_CAT_ID":41774,"ELEMENT_SET_NO":999,"REV_AT_EPOCH":54990,"BSTAR":0.00024354838,"MEAN_MOTION_DOT":0.00015432,"MEAN_MOTION_DDOT":0},{"OBJECT_NAME":"SKYSAT-C11","OBJECT_ID":"2017-068A","EPOCH":"2026-07-11T17:05:26.412000","CLASSIFICATION_TYPE":"U","MEAN_MOTION":15.59189206,"ECCENTRICITY":0.00009576,"INCLINATION":97.4366,"RA_OF_ASC_NODE":342.6375,"ARG_OF_PERICENTER":163.574,"MEAN_ANOMALY":196.5548,"EPHEMERIS_TYPE":0,"NORAD_CAT_ID":42987,"ELEMENT_SET_NO":999,"REV_AT_EPOCH":48706,"BSTAR":0.00024138872,"MEAN_MOTION_DOT":0.00018813,"MEAN_MOTION_DDOT":0},{"OBJECT_NAME":"SKYSAT-C10","OBJECT_ID":"2017-068B","EPOCH":"2026-07-11T22:27:58.277952","CLASSIFICATION_TYPE":"U","MEAN_MOTION":15.35074302,"ECCENTRICITY":0.00014034,"INCLINATION":97.4526,"RA_OF_ASC_NODE":330.0351,"ARG_OF_PERICENTER":108.5337,"MEAN_ANOMALY":251.6059,"EPHEMERIS_TYPE":0,"NORAD_CAT_ID":42988,"ELEMENT_SET_NO":999,"REV_AT_EPOCH":48615,"BSTAR":0.00019221202,"MEAN_MOTION_DOT":0.00006459,"MEAN_MOTION_DDOT":0},{"OBJECT_NAME":"SKYSAT-C9","OBJECT_ID":"2017-068C","EPOCH":"2026-07-11T04:28:53.357088","CLASSIFICATION_TYPE":"U","MEAN_MOTION":15.42149851,"ECCENTRICITY":0.00089454,"INCLINATION":97.4444,"RA_OF_ASC_NODE":330.445,"ARG_OF_PERICENTER":57.4451,"MEAN_ANOMALY":302.7659,"EPHEMERIS_TYPE":0,"NORAD_CAT_ID":42989,"ELEMENT_SET_NO":999,"REV_AT_EPOCH":48645,"BSTAR":0.00019496411,"MEAN_MOTION_DOT":0.00008274,"MEAN_MOTION_DDOT":0},{"OBJECT_NAME":"SKYSAT-C8","OBJECT_ID":"2017-068D","EPOCH":"2026-07-11T20:51:57.265920","CLASSIFICATION_TYPE":"U","MEAN_MOTION":15.37449279,"ECCENTRICITY":0.00012484,"INCLINATION":97.4545,"RA_OF_ASC_NODE":329.8628,"ARG_OF_PERICENTER":101.2013,"MEAN_ANOMALY":258.9372,"EPHEMERIS_TYPE":0,"NORAD_CAT_ID":42990,"ELEMENT_SET_NO":999,"REV_AT_EPOCH":48610,"BSTAR":0.00017273211,"MEAN_MOTION_DOT":0.00006258,"MEAN_MOTION_DDOT":0},{"OBJECT_NAME":"SKYSAT-C7","OBJECT_ID":"2017-068E","EPOCH":"2026-07-11T20:43:51.699648","CLASSIFICATION_TYPE":"U","MEAN_MOTION":15.374005,"ECCENTRICITY":0.0005989,"INCLINATION":97.4553,"RA_OF_ASC_NODE":330.8482,"ARG_OF_PERICENTER":32.7055,"MEAN_ANOMALY":327.4559,"EPHEMERIS_TYPE":0,"NORAD_CAT_ID":42991,"ELEMENT_SET_NO":999,"REV_AT_EPOCH":48616,"BSTAR":0.00017196351,"MEAN_MOTION_DOT":0.00006223,"MEAN_MOTION_DDOT":0},{"OBJECT_NAME":"SKYSAT-C6","OBJECT_ID":"2017-068F","EPOCH":"2026-07-11T20:47:50.825472","CLASSIFICATION_TYPE":"U","MEAN_MOTION":15.3413333,"ECCENTRICITY":0.00051622,"INCLINATION":97.4592,"RA_OF_ASC_NODE":330.7193,"ARG_OF_PERICENTER":97.3545,"MEAN_ANOMALY":262.8285,"EPHEMERIS_TYPE":0,"NORAD_CAT_ID":42992,"ELEMENT_SET_NO":999,"REV_AT_EPOCH":48610,"BSTAR":0.00017430622,"MEAN_MOTION_DOT":0.00005678,"MEAN_MOTION_DDOT":0},{"OBJECT_NAME":"SKYSAT-C12","OBJECT_ID":"2018-099AR","EPOCH":"2026-07-11T21:30:43.274880","CLASSIFICATION_TYPE":"U","MEAN_MOTION":15.49710045,"ECCENTRICITY":0.0005571,"INCLINATION":96.9258,"RA_OF_ASC_NODE":215.1504,"ARG_OF_PERICENTER":77.6599,"MEAN_ANOMALY":282.5277,"EPHEMERIS_TYPE":0,"NORAD_CAT_ID":43797,"ELEMENT_SET_NO":999,"REV_AT_EPOCH":42568,"BSTAR":0.00020455853,"MEAN_MOTION_DOT":0.00011268,"MEAN_MOTION_DDOT":0}]}
